[{"OBJECT_NAME":"STARLINK-4267","OBJECT_ID":"2022-062AL","EPOCH":"2026-03-09T06:32:35.119680","MEAN_MOTION":15.0884444,"ECCENTRICITY":0.00013438,"INCLINATION":53.2172,"RA_OF_ASC_NODE":25.9927,"ARG_OF_PERICENTER":85.6232,"MEAN_ANOMALY":274.4914,"EPHEMERIS_TYPE":0,"CLASSIFICATION_TYPE":"U","NORAD_CAT_ID":52864,"ELEMENT_SET_NO":999,"REV_AT_EPOCH":20586,"BSTAR":-1.2812798e-5,"MEAN_MOTION_DOT":-4.92e-6,"MEAN_MOTION_DDOT":0},{"OBJECT_NAME":"KUIPER-00148","OBJECT_ID":"2025-217H","EPOCH":"2026-03-09T06:36:19.446048","MEAN_MOTION":15.09536529,"ECCENTRICITY":0.00081087,"INCLINATION":51.8794,"RA_OF_ASC_NODE":26.5769,"ARG_OF_PERICENTER":351.8096,"MEAN_ANOMALY":8.2745,"EPHEMERIS_TYPE":0,"CLASSIFICATION_TYPE":"U","NORAD_CAT_ID":65769,"ELEMENT_SET_NO":999,"REV_AT_EPOCH":2507,"BSTAR":0.00098730243,"MEAN_MOTION_DOT":0.00015783,"MEAN_MOTION_DDOT":0}]
