STARLINK-4267           
1 52864U 22062AL  26068.27262870 -.00000492  00000+0 -12813-4 0  9998
2 52864  53.2172  25.9927 0001343  85.6232 274.4914 15.08844440205868
KUIPER-00148            
1 65769U 25217H   26068.27522507  .00015783  00000+0  98730-3 0  9995
2 65769  51.8794  26.5769 0008108 351.8096   8.2745 15.09536529 25078
